SMDC ONE 1.2            
1 38759U 12048B   26068.59359052  .00013943  00000+0  57078-3 0  9996
2 38759  64.6579 143.2061 0110458 207.1808 152.3511 15.19069434101016
STARLINK-35616          
1 66255U 25245X   26068.81624688  .00025715  00000+0  87701-3 0  9992
2 66255  53.1574 283.4641 0001416 133.3081 226.8038 15.30212716 21279
